start=new Date('2022-02-15T00:00:00.000Z').valueOf();
sats=[{"SITE":"AFETR","APOAPSIS":"548.337","REF_FRAME":"TEME","MEAN_MOTION":"15.06395970","DECAY_DATE":null,"TLE_LINE2":"2 45093  53.0542  69.2215 0001604  66.1046 294.0111 15.06395970113324","RA_OF_ASC_NODE":"69.2215","GP_ID":"195934815","MEAN_ELEMENT_THEORY":"SGP4","INCLINATION":"53.0542","ARG_OF_PERICENTER":"66.1046","ELEMENT_SET_NO":"999","CLASSIFICATION_TYPE":"U","NORAD_CAT_ID":"45093","EPOCH":"2022-02-14T12:59:21.325920","TIME_SYSTEM":"UTC","COUNTRY_CODE":"US","EPHEMERIS_TYPE":"0","MEAN_ANOMALY":"294.0111","MEAN_MOTION_DOT":"-0.00000068","PERIAPSIS":"546.115","TLE_LINE1":"1 45093U 20006BB  22045.54121905 -.00000068  00000-0  14344-4 0  9994","LAUNCH_DATE":"2020-01-29","REV_AT_EPOCH":"11332","OBJECT_ID":"2020-006BB","RCS_SIZE":"LARGE","ECCENTRICITY":"0.00016040","BSTAR":"0.00001434400000","MEAN_MOTION_DDOT":"0.0000000000000","OBJECT_TYPE":"PAYLOAD","CENTER_NAME":"EARTH","PERIOD":"95.592","SEMIMAJOR_AXIS":"6925.361","OBJECT_NAME":"STARLINK-1142","FILE":"3300472"},{"ELEMENT_SET_NO":"999","INCLINATION":"53.0565","MEAN_ELEMENT_THEORY":"SGP4","ARG_OF_PERICENTER":"74.8237","DECAY_DATE":null,"GP_ID":"195964048","RA_OF_ASC_NODE":"68.2607","TLE_LINE2":"2 45094  53.0565  68.2607 0001322  74.8237 285.2898 15.06401511113366","APOAPSIS":"548.124","SITE":"AFETR","MEAN_MOTION":"15.06401511","REF_FRAME":"TEME","TIME_SYSTEM":"UTC","COUNTRY_CODE":"US","EPHEMERIS_TYPE":"0","EPOCH":"2022-02-14T18:07:11.629344","MEAN_ANOMALY":"285.2898","NORAD_CAT_ID":"45094","CLASSIFICATION_TYPE":"U","RCS_SIZE":"LARGE","OBJECT_ID":"2020-006BC","ECCENTRICITY":"0.00013220","TLE_LINE1":"1 45094U 20006BC  22045.75499571  .00000868  00000-0  77152-4 0  9998","LAUNCH_DATE":"2020-01-29","REV_AT_EPOCH":"11336","MEAN_MOTION_DOT":"0.00000868","PERIAPSIS":"546.293","OBJECT_NAME":"STARLINK-1146","FILE":"3300727","MEAN_MOTION_DDOT":"0.0000000000000","SEMIMAJOR_AXIS":"6925.344","PERIOD":"95.592","CENTER_NAME":"EARTH","OBJECT_TYPE":"PAYLOAD","BSTAR":"0.00007715200000"},{"TLE_LINE1":"1 45095U 20006BD  22045.75868632  .00000437  00000-0  48260-4 0  9997","REV_AT_EPOCH":"11336","LAUNCH_DATE":"2020-01-29","MEAN_MOTION_DOT":"0.00000437","PERIAPSIS":"546.209","OBJECT_ID":"2020-006BD","RCS_SIZE":"LARGE","ECCENTRICITY":"0.00014850","BSTAR":"0.00004826000000","OBJECT_NAME":"STARLINK-1147","FILE":"3300727","MEAN_MOTION_DDOT":"0.0000000000000","CENTER_NAME":"EARTH","OBJECT_TYPE":"PAYLOAD","SEMIMAJOR_AXIS":"6925.372","PERIOD":"95.593","DECAY_DATE":null,"TLE_LINE2":"2 45095  53.0559  68.2559 0001485  62.0568 298.0572 15.06392344113366","RA_OF_ASC_NODE":"68.2559","GP_ID":"195964298","SITE":"AFETR","APOAPSIS":"548.265","MEAN_MOTION":"15.06392344","REF_FRAME":"TEME","ELEMENT_SET_NO":"999","MEAN_ELEMENT_THEORY":"SGP4","INCLINATION":"53.0559","ARG_OF_PERICENTER":"62.0568","NORAD_CAT_ID":"45095","CLASSIFICATION_TYPE":"U","EPOCH":"2022-02-14T18:12:30.498048","COUNTRY_CODE":"US","TIME_SYSTEM":"UTC","EPHEMERIS_TYPE":"0","MEAN_ANOMALY":"298.0572"},{"CENTER_NAME":"EARTH","OBJECT_TYPE":"PAYLOAD","SEMIMAJOR_AXIS":"6925.377","PERIOD":"95.593","MEAN_MOTION_DDOT":"0.0000000000000","FILE":"3300727","OBJECT_NAME":"STARLINK-1152","BSTAR":"0.00000082234000","ECCENTRICITY":"0.00014570","OBJECT_ID":"2020-006BE","RCS_SIZE":"LARGE","PERIAPSIS":"546.233","MEAN_MOTION_DOT":"-0.00000269","LAUNCH_DATE":"2020-01-29","REV_AT_EPOCH":"11335","TLE_LINE1":"1 45096U 20006BE  22045.75131900 -.00000269  00000-0  82234-6 0  9994","MEAN_ANOMALY":"296.6145","EPOCH":"2022-02-14T18:01:53.961600","COUNTRY_CODE":"US","EPHEMERIS_TYPE":"0","TIME_SYSTEM":"UTC","CLASSIFICATION_TYPE":"U","NORAD_CAT_ID":"45096","ARG_OF_PERICENTER":"63.4993","MEAN_ELEMENT_THEORY":"SGP4","INCLINATION":"53.0554","ELEMENT_SET_NO":"999","MEAN_MOTION":"15.06390677","REF_FRAME":"TEME","SITE":"AFETR","APOAPSIS":"548.251","TLE_LINE2":"2 45096  53.0554  68.2916 0001457  63.4993 296.6145 15.06390677113351","RA_OF_ASC_NODE":"68.2916","GP_ID":"195965549","DECAY_DATE":null},{"BSTAR":"-0.00007833300000","MEAN_MOTION_DDOT":"0.0000000000000","SEMIMAJOR_AXIS":"6925.394","PERIOD":"95.593","CENTER_NAME":"EARTH","OBJECT_TYPE":"PAYLOAD","OBJECT_NAME":"STARLINK-1184","FILE":"3300727","MEAN_MOTION_DOT":"-0.00001448","PERIAPSIS":"546.207","TLE_LINE1":"1 45098U 20006BG  22045.46750953 -.00001448  00000-0 -78333-4 0  9993","LAUNCH_DATE":"2020-01-29","REV_AT_EPOCH":"11331","RCS_SIZE":"LARGE","OBJECT_ID":"2020-006BG","ECCENTRICITY":"0.00015190","CLASSIFICATION_TYPE":"U","NORAD_CAT_ID":"45098","EPHEMERIS_TYPE":"0","COUNTRY_CODE":"US","TIME_SYSTEM":"UTC","EPOCH":"2022-02-14T11:13:12.823392","MEAN_ANOMALY":"281.6503","APOAPSIS":"548.311","SITE":"AFETR","REF_FRAME":"TEME","MEAN_MOTION":"15.06385226","DECAY_DATE":null,"GP_ID":"195965799","RA_OF_ASC_NODE":"69.5628","TLE_LINE2":"2 45098  53.0556  69.5628 0001519  78.4656 281.6503 15.06385226113312","INCLINATION":"53.0556","MEAN_ELEMENT_THEORY":"SGP4","ARG_OF_PERICENTER":"78.4656","ELEMENT_SET_NO":"999"},{"TLE_LINE1":"1 45099U 20006BH  22045.76606970  .00000207  00000-0  32800-4 0  9995","LAUNCH_DATE":"2020-01-29","REV_AT_EPOCH":"11336","MEAN_MOTION_DOT":"0.00000207","PERIAPSIS":"546.142","OBJECT_ID":"2020-006BH","RCS_SIZE":"LARGE","ECCENTRICITY":"0.00016040","BSTAR":"0.00003280000000","OBJECT_NAME":"STARLINK-1186","FILE":"3300727","MEAN_MOTION_DDOT":"0.0000000000000","CENTER_NAME":"EARTH","OBJECT_TYPE":"PAYLOAD","PERIOD":"95.593","SEMIMAJOR_AXIS":"6925.387","DECAY_DATE":null,"TLE_LINE2":"2 45099  53.0563  68.2113 0001604  57.8415 302.2730 15.06387334113364","RA_OF_ASC_NODE":"68.2113","GP_ID":"195964549","SITE":"AFETR","APOAPSIS":"548.363","MEAN_MOTION":"15.06387334","REF_FRAME":"TEME","ELEMENT_SET_NO":"999","MEAN_ELEMENT_THEORY":"SGP4","INCLINATION":"53.0563","ARG_OF_PERICENTER":"57.8415","NORAD_CAT_ID":"45099","CLASSIFICATION_TYPE":"U","EPOCH":"2022-02-14T18:23:08.422080","COUNTRY_CODE":"US","EPHEMERIS_TYPE":"0","TIME_SYSTEM":"UTC","MEAN_ANOMALY":"302.2730"},{"MEAN_ANOMALY":"295.7841","EPOCH":"2022-02-14T19:05:37.517568","TIME_SYSTEM":"UTC","COUNTRY_CODE":"US","EPHEMERIS_TYPE":"0","CLASSIFICATION_TYPE":"U","NORAD_CAT_ID":"45100","ARG_OF_PERICENTER":"64.3292","MEAN_ELEMENT_THEORY":"SGP4","INCLINATION":"53.0562","ELEMENT_SET_NO":"999","MEAN_MOTION":"15.06381272","REF_FRAME":"TEME","SITE":"AFETR","APOAPSIS":"548.239","TLE_LINE2":"2 45100  53.0562  68.0672 0001398  64.3292 295.7841 15.06381272113364","RA_OF_ASC_NODE":"68.0672","GP_ID":"195964799","DECAY_DATE":null,"CENTER_NAME":"EARTH","OBJECT_TYPE":"PAYLOAD","SEMIMAJOR_AXIS":"6925.406","PERIOD":"95.593","MEAN_MOTION_DDOT":"0.0000000000000","FILE":"3300727","OBJECT_NAME":"STARLINK-1193","BSTAR":"-0.00010805000000","ECCENTRICITY":"0.00013980","OBJECT_ID":"2020-006BJ","RCS_SIZE":"LARGE","PERIAPSIS":"546.303","MEAN_MOTION_DOT":"-0.00001890","REV_AT_EPOCH":"11336","LAUNCH_DATE":"2020-01-29","TLE_LINE1":"1 45100U 20006BJ  22045.79557312 -.00001890  00000-0 -10805-3 0  9997"},{"DECAY_DATE":null,"GP_ID":"195965049","RA_OF_ASC_NODE":"68.0826","TLE_LINE2":"2 45101  53.0545  68.0826 0001483  69.2694 290.8454 15.06405253113364","APOAPSIS":"548.224","SITE":"AFETR","REF_FRAME":"TEME","MEAN_MOTION":"15.06405253","ELEMENT_SET_NO":"999","INCLINATION":"53.0545","MEAN_ELEMENT_THEORY":"SGP4","ARG_OF_PERICENTER":"69.2694","NORAD_CAT_ID":"45101","CLASSIFICATION_TYPE":"U","EPHEMERIS_TYPE":"0","COUNTRY_CODE":"US","TIME_SYSTEM":"UTC","EPOCH":"2022-02-14T19:00:16.138944","MEAN_ANOMALY":"290.8454","TLE_LINE1":"1 45101U 20006BK  22045.79185346  .00000419  00000-0  47044-4 0  9992","REV_AT_EPOCH":"11336","LAUNCH_DATE":"2020-01-29","MEAN_MOTION_DOT":"0.00000419","PERIAPSIS":"546.170","RCS_SIZE":"LARGE","OBJECT_ID":"2020-006BK","ECCENTRICITY":"0.00014830","BSTAR":"0.00004704400000","OBJECT_NAME":"STARLINK-1194","FILE":"3300727","MEAN_MOTION_DDOT":"0.0000000000000","PERIOD":"95.592","SEMIMAJOR_AXIS":"6925.332","CENTER_NAME":"EARTH","OBJECT_TYPE":"PAYLOAD"},{"MEAN_MOTION_DDOT":"0.0000000000000","OBJECT_TYPE":"PAYLOAD","CENTER_NAME":"EARTH","SEMIMAJOR_AXIS":"6925.366","PERIOD":"95.592","OBJECT_NAME":"STARLINK-1195","FILE":"3300727","BSTAR":"-0.00009876900000","OBJECT_ID":"2020-006BL","RCS_SIZE":"LARGE","ECCENTRICITY":"0.00014020","MEAN_MOTION_DOT":"-0.00001752","PERIAPSIS":"546.260","TLE_LINE1":"1 45102U 20006BL  22045.74763350 -.00001752  00000-0 -98769-4 0  9998","REV_AT_EPOCH":"11335","LAUNCH_DATE":"2020-01-29","EPOCH":"2022-02-14T17:56:35.534400","TIME_SYSTEM":"UTC","COUNTRY_CODE":"US","EPHEMERIS_TYPE":"0","MEAN_ANOMALY":"294.7760","CLASSIFICATION_TYPE":"U","NORAD_CAT_ID":"45102","MEAN_ELEMENT_THEORY":"SGP4","INCLINATION":"53.0557","ARG_OF_PERICENTER":"65.3374","ELEMENT_SET_NO":"999","SITE":"AFETR","APOAPSIS":"548.202","REF_FRAME":"TEME","MEAN_MOTION":"15.06394398","DECAY_DATE":null,"TLE_LINE2":"2 45102  53.0557  68.3082 0001402  65.3374 294.7760 15.06394398113357","RA_OF_ASC_NODE":"68.3082","GP_ID":"195965299"},{"BSTAR":"0.00014592000000","OBJECT_NAME":"STARLINK-1196","FILE":"3300727","MEAN_MOTION_DDOT":"0.0000000000000","CENTER_NAME":"EARTH","OBJECT_TYPE":"PAYLOAD","SEMIMAJOR_AXIS":"6925.379","PERIOD":"95.593","TLE_LINE1":"1 45103U 20006BM  22045.77986161  .00001892  00000-0  14592-3 0  9993","REV_AT_EPOCH":"11336","LAUNCH_DATE":"2020-01-29","MEAN_MOTION_DOT":"0.00001892","PERIAPSIS":"546.214","OBJECT_ID":"2020-006BM","RCS_SIZE":"LARGE","ECCENTRICITY":"0.00014880","NORAD_CAT_ID":"45103","CLASSIFICATION_TYPE":"U","EPOCH":"2022-02-14T18:43:00.043104","EPHEMERIS_TYPE":"0","COUNTRY_CODE":"US","TIME_SYSTEM":"UTC","MEAN_ANOMALY":"295.5549","DECAY_DATE":null,"TLE_LINE2":"2 45103  53.0534  68.2219 0001488  64.5594 295.5549 15.06389926113369","GP_ID":"195964049","RA_OF_ASC_NODE":"68.2219","SITE":"AFETR","APOAPSIS":"548.275","MEAN_MOTION":"15.06389926","REF_FRAME":"TEME","ELEMENT_SET_NO":"999","MEAN_ELEMENT_THEORY":"SGP4","INCLINATION":"53.0534","ARG_OF_PERICENTER":"64.5594"}];
